STEP CUBE LAB           
1 43138U 18004AD  21004.16831916  .00002347  00000-0  93973-4 0  9995
2 43138  97.4295  81.0630 0010101  71.7681 288.4656 15.26021417165693
XIAOXIANG-2             
1 43155U 18008A   21004.16099565  .00001056  00000-0  64921-4 0  9991
2 43155  97.4250  73.9183 0017504 170.9412 273.1967 15.12034802163246
ZHOU ENLAI              
1 43156U 18008B   21004.18410028  .00001843  00000-0  11199-3 0  9997
2 43156  97.4295  73.7777 0015035 169.3620 277.6571 15.11613551163190
QUANTUTONG 1            
1 43158U 18008D   21004.19531535  .00001352  00000-0  84343-4 0  9994
2 43158  97.4238  72.5894 0013743 168.2375 254.9906 15.11096400163137
S-NET D                 
1 43186U 18014G   21004.19299590 -.00000145  00000-0 -75689-5 0  9999
2 43186  97.6865 274.6443 0009706 273.9214  86.0898 14.96939419159723
S-NET B                 
1 43187U 18014H   21003.85864019 -.00000171  00000-0 -98683-5 0  9994
2 43187  97.6863 274.2878 0009700 275.1787  84.8328 14.96939026159675
S-NET A                 
1 43188U 18014J   21004.19277593 -.00000156  00000-0 -85464-5 0  9994
2 43188  97.6865 274.6540 0009687 273.9992  86.0122 14.96937758159728
S-NET C                 
1 43189U 18014K   21004.19327002 -.00000139  00000-0 -70486-5 0  9995
2 43189  97.6861 274.6107 0009695 273.7931  86.2182 14.96937771158276
FENGMANIU-1 (FMN-1)     
1 43192U 18015A   21004.17400235  .00003960  00000-0  15268-3 0  9996
2 43192  97.4670 139.1565 0016533 102.0210   0.6049 15.26792197162511
SHAONIAN XING           
1 43199U 18015H   21004.16246297  .00002902  00000-0  11309-3 0  9995
2 43199  97.4458 136.8582 0017798 111.1474 353.2732 15.26641470162571
UBAKUSAT                
1 43467U 98067NQ  20362.27906033  .06269310  12352-4  52456-3 0  9996
2 43467  51.6190 354.3668 0001241 137.3285 222.7838 16.38845679150702
LUOJIA-1 01             
1 43485U 18048B   21004.23065711  .00000246  00000-0  42307-4 0  9999
2 43485  97.9767  88.0419 0012645 104.7250 255.5368 14.76774264139755
EQUISAT                 
1 43552U 98067PA  20361.21801847  .10316869  12478-4  50011-3 0  9992
2 43552  51.6122   8.3673 0000676 209.2273 150.8717 16.43170683140619
RADSAT-G                
1 43553U 98067PB  21003.87773748  .00066165  00000-0  29546-3 0  9990
2 43553  51.6378 347.4120 0005838 103.5908 256.5746 15.83586551141720
SIRIUSSAT-1             
1 43595U 98067PG  20344.55055662  .07916525  12514-4  56251-3 0  9997
2 43595  51.6588  97.6693 0009437  42.2825  52.9592 16.39998780132780
SIRIUSSAT-2             
1 43596U 98067PH  20344.36554324  .08904132  12494-4  57179-3 0  9995
2 43596  51.6062  99.6513 0006261 312.7483  99.6145 16.40921535132742
SURFSAT                 
1 43614U 18070B   21003.90088765  .00003673  00000-0  90248-4 0  9999
2 43614  93.0257 237.6602 0011901 286.0080  73.9864 15.40643727129321
CP7 (DAVE)              
1 43615U 18070C   21003.89044899  .00003521  00000-0  87178-4 0  9998
2 43615  93.0260 237.6315 0012064 285.6019  74.3904 15.40415230129310
ELFIN-B                 
1 43616U 18070D   21003.91544951  .00005528  00000-0  12771-3 0  9991
2 43616  93.0218 237.6751 0012143 285.8095  74.1821 15.42471823129398
ELFIN-A                 
1 43617U 18070E   21003.91682712  .00005552  00000-0  12695-3 0  9992
2 43617  93.0271 238.3655 0011483 281.9737  78.0231 15.42791963129405
1998-067PP              
1 43639U 98067PP  21004.19528441  .00090172  00000-0  36131-3 0  9992
2 43639  51.6302 351.5103 0005886  82.0167 278.1505 15.85733098128427
STARS-ME                
1 43640U 98067PQ  21004.17074715  .00034447  00000-0  23016-3 0  9993
2 43640  51.6338   4.9139 0005285  68.7724 291.3840 15.74966283128240
CZ-4B R/B               
1 43656U 18081B   21003.82183995  .00000009  00000-0  20721-4 0  9998
2 43656  99.3704  91.4110 0208049 226.1030 132.2808 14.30449660114637
CUBEBEL-1 (BSUSAT-1)    
1 43666U 18083E   21004.09309778  .00001752  00000-0  87347-4 0  9993
2 43666  97.4720  34.4362 0015479  27.4606  58.9797 15.18786191121061
CHANGSHAGAOXIN (TY 4-01)
1 43669U 18083H   21004.15291616  .00001174  00000-0  61514-4 0  9990
2 43669  97.4608  32.0730 0011350  24.1175  49.3256 15.17704628120967
TEN-KOH                 
1 43677U 18084G   21003.90448022  .00000161  00000-0  22408-4 0  9991
2 43677  97.9020 126.7535 0015271 213.0647 146.9618 14.90380155118791
DIWATA-2B               
1 43678U 18084H   21004.18000402  .00000544  00000-0  59760-4 0  9995
2 43678  97.9047 128.8548 0008837 228.8180 131.2270 14.91697702118942
STARS-AO                
1 43679U 18084J   21004.10186584  .00000444  00000-0  49111-4 0  9992
2 43679  97.9083 129.7396 0008028 236.2553 123.7901 14.92369537118976
AUTCUBE 2               
1 43681U 18084K   21003.88505396  .00000498  00000-0  54909-4 0  9995
2 43681  97.9052 128.8069 0008432 229.7175 130.3307 14.91970893118873
IRVINE01                
1 43693U 18088D   21003.84020567  .00004147  00000-0  16821-3 0  9995
2 43693  85.0352 304.2556 0014486 275.1748  84.7842 15.24203125119359
ES'HAIL 2               
1 43700U 18090A   21004.11944282  .00000154  00000-0  00000+0 0  9999
2 43700   0.0178  36.6227 0001685 283.1693 212.9437  1.00269691  7964
FACSAT-1                
1 43721U 18096C   21004.19606344  .00002881  00000-0  10754-3 0  9990
2 43721  97.4032  82.5554 0018434 130.1330 282.5593 15.28057256117031
CENTAURI-2              
1 43722U 18096D   21004.19519461  .00003122  00000-0  11357-3 0  9993
2 43722  97.4043  83.0602 0018304 129.6866 230.5992 15.28851826117050
3CAT-1                  
1 43728U 18096K   21004.17273287  .00003622  00000-0  13008-3 0  9990
2 43728  97.4053  83.5142 0018123 133.4806 310.3839 15.29163245117078
INNOSAT-2               
1 43738U 18096V   21004.07152016  .00005134  00000-0  16809-3 0  9998
2 43738  97.4084  85.8121 0023730 134.7776 296.9452 15.31854387117229
REAKTOR HELLO WORLD     
1 43743U 18096AA  21004.18968818  .00001916  00000-0  72355-4 0  9994
2 43743  97.4035  82.9056 0018671 134.9008 225.3751 15.28095108117046
ELYSIUM STAR 2 & LFF    
1 43760U 18099C   21003.80271258  .00000874  00000-0  83017-4 0  9998
2 43760  97.6889  78.2540 0012998 234.0784 125.9226 14.95986352113893
2018-099D               
1 43761U 18099D   21003.72550409 -.00000239  00000-0 -16517-4 0  9996
2 43761  97.6864  77.8032 0013359 238.3213 121.6710 14.95213799113859
AISTECHSAT 2            
1 43768U 18099L   21004.17213266 -.00000104  00000-0 -43249-5 0  9994
2 43768  97.6837  77.3278 0010293 234.0760 125.9506 14.94789372113604
FOX-1CLIFF (AO-95)      
1 43770U 18099N   21004.16038605  .00000436  00000-0  44854-4 0  9996
2 43770  97.6861  77.8255 0013180 244.1661 115.8201 14.95160928113908
RANGE-A                 
1 43772U 18099Q   21004.15219994  .00000997  00000-0  95338-4 0  9994
2 43772  97.6937  78.5738 0013042 229.6481 130.3601 14.95408304113902
RANGE-B                 
1 43773U 18099R   21004.15634096  .00000419  00000-0  43428-4 0  9991
2 43773  97.6799  77.2991 0012360 229.8230 130.1909 14.95095854113891
2018-099T               
1 43775U 18099T   21004.16606527  .00000048  00000-0  95259-5 0  9990
2 43775  97.6864  78.0364 0013395 234.7382 125.2586 14.95181440113894
MOVE-II                 
1 43780U 18099Y   21004.18290369  .00000290  00000-0  31173-4 0  9994
2 43780  97.6869  78.2124 0012377 240.9155 119.0828 14.95666521113918
SNUSAT-2                
1 43782U 18099AA  21004.15341009  .00000719  00000-0  70153-4 0  9998
2 43782  97.6859  78.1024 0011602 228.3708 131.6520 14.95416139113918
SNUGLITE                
1 43784U 18099AC  21004.17474295 -.00000047  00000-0  92260-6 0  9996
2 43784  97.6823  77.8938 0013881 238.1389 121.8482 14.95525551113935
ITASAT 1                
1 43786U 18099AE  21004.18000048 -.00000090  00000-0 -29654-5 0  9995
2 43786  97.6877  78.4080 0014017 237.3290 122.6579 14.95475072113933
KAZSCISAT-1             
1 43787U 18099AF  21004.15024315  .00001088  00000-0  10232-3 0  9992
2 43787  97.6789  77.6400 0012976 233.2590 126.7440 14.95863301113942
EAGLET-I                
1 43790U 18099AJ  21003.78657852  .00000012  00000-0  61947-5 0  9999
2 43790  97.6864  78.3652 0012328 242.8704 117.1260 14.95851892113598
ESEO                    
1 43792U 18099AL  21003.74861808  .00000619  00000-0  60779-4 0  9999
2 43792  97.6839  78.0392 0011946 238.9152 121.0898 14.95672628113643
CSIM-FD                 
1 43793U 18099AM  21003.78892846  .00000432  00000-0  43248-4 0  9995
2 43793  97.6846  78.2310 0012116 235.2527 124.7554 14.96321878113648
ASTROCAST 0.1           
1 43798U 18099AS  21004.15672856  .00000693  00000-0  66801-4 0  9998
2 43798  97.6870  78.8722 0011412 217.7803 142.2618 14.96005561113951
JY1SAT (JO-97)          
1 43803U 18099AX  21004.16898858  .00000118  00000-0  15774-4 0  9993
2 43803  97.6840  78.1731 0013887 237.3960 122.5921 14.95688798113932
SUOMI-100               
1 43804U 18099AY  21004.17178277  .00000011  00000-0  61672-5 0  9992
2 43804  97.6838  78.1543 0013971 237.5868 122.4002 14.95668359113945
AL-FARABI 2             
1 43805U 18099AZ  21003.79289923  .00000250  00000-0  27495-4 0  9990
2 43805  97.6836  77.9318 0014232 238.8868 121.0946 14.95832406113898
CENTAURI-1              
1 43809U 18099BD  21003.78424877 -.00000055  00000-0  21661-6 0  9997
2 43809  97.6849  78.0453 0014045 240.1285 119.8541 14.95704453113581
PW-SAT2                 
1 43814U 18099BJ  21004.19852213  .00169965  00000-0  43898-2 0  9995
2 43814  97.7878  97.4397 0011683 241.0676 118.9397 15.38391895114211
CHOMPTT                 
1 43855U 18104G   21003.81241673  .00001338  00000-0  54169-4 0  9991
2 43855  85.0362  42.5935 0018682  40.0819 320.1798 15.23473182114020
DAVINCI                 
1 43857U 18104J   21003.85532187  .00003220  00000-0  13051-3 0  9996
2 43857  85.0317  42.6261 0017194  64.4746 295.8272 15.24084606114004
